stk.v.4.2

BEGIN Ephemeris

    BlockingFactor		20

    InterpolationOrder 		5


NumberOfEphemerisPoints 		758

ScenarioEpoch 		1 Jun 2001 18:00:00.000000000

CentralBody 		 Earth

CoordinateSystem 		 Fixed

EphemerisTimePosVel

4.50000000000000e+002 4.27389458720000e+006 2.92172676730000e+006 4.45190371920000e+006 2.69152800000000e+002 -3.02215040000000e+003 1.60546760000000e+003
4.51000000000000e+002 4.27406156130000e+006 2.91869558320000e+006 4.45350639580000e+006 2.63734100000000e+002 -3.02597790000000e+003 1.59988520000000e+003
4.52000000000000e+002 4.27422277230000e+006 2.91566074170000e+006 4.45510348880000e+006 2.58314700000000e+002 -3.02980180000000e+003 1.59430040000000e+003
4.53000000000000e+002 4.27437821910000e+006 2.91262224710000e+006 4.45669499580000e+006 2.52894600000000e+002 -3.03362220000000e+003 1.58871320000000e+003
4.54000000000000e+002 4.27452790070000e+006 2.90958010390000e+006 4.45828091430000e+006 2.47473900000000e+002 -3.03743900000000e+003 1.58312360000000e+003
4.55000000000000e+002 4.27467181590000e+006 2.90653431650000e+006 4.45986124220000e+006 2.42052400000000e+002 -3.04125240000000e+003 1.57753160000000e+003
4.56000000000000e+002 4.27480996360000e+006 2.90348488910000e+006 4.46143597680000e+006 2.36630300000000e+002 -3.04506220000000e+003 1.57193730000000e+003
4.57000000000000e+002 4.27494234270000e+006 2.90043182620000e+006 4.46300511590000e+006 2.31207400000000e+002 -3.04886850000000e+003 1.56634050000000e+003
4.58000000000000e+002 4.27506895210000e+006 2.89737513200000e+006 4.46456865690000e+006 2.25783900000000e+002 -3.05267130000000e+003 1.56074130000000e+003
4.59000000000000e+002 4.27518979060000e+006 2.89431481100000e+006 4.46612659760000e+006 2.20359600000000e+002 -3.05647070000000e+003 1.55513960000000e+003
4.60000000000000e+002 4.27530485710000e+006 2.89125086750000e+006 4.46767893530000e+006 2.14934500000000e+002 -3.06026650000000e+003 1.54953550000000e+003
4.61000000000000e+002 4.27541415040000e+006 2.88818330580000e+006 4.46922566780000e+006 2.09508700000000e+002 -3.06405890000000e+003 1.54392900000000e+003
4.62000000000000e+002 4.27551766950000e+006 2.88511213020000e+006 4.47076679240000e+006 2.04082200000000e+002 -3.06784780000000e+003 1.53831990000000e+003
4.63000000000000e+002 4.27561541300000e+006 2.88203734500000e+006 4.47230230680000e+006 1.98654900000000e+002 -3.07163320000000e+003 1.53270840000000e+003
4.64000000000000e+002 4.27570737980000e+006 2.87895895470000e+006 4.47383220840000e+006 1.93226800000000e+002 -3.07541510000000e+003 1.52709440000000e+003
4.65000000000000e+002 4.27579356880000e+006 2.87587696340000e+006 4.47535649480000e+006 1.87797900000000e+002 -3.07919360000000e+003 1.52147790000000e+003
4.66000000000000e+002 4.27587397880000e+006 2.87279137550000e+006 4.47687516340000e+006 1.82368300000000e+002 -3.08296870000000e+003 1.51585890000000e+003
4.67000000000000e+002 4.27594860850000e+006 2.86970219530000e+006 4.47838821170000e+006 1.76937800000000e+002 -3.08674030000000e+003 1.51023740000000e+003
4.68000000000000e+002 4.27601745670000e+006 2.86660942700000e+006 4.47989563730000e+006 1.71506500000000e+002 -3.09050850000000e+003 1.50461330000000e+003
4.69000000000000e+002 4.27608052210000e+006 2.86351307510000e+006 4.48139743740000e+006 1.66074400000000e+002 -3.09427320000000e+003 1.49898660000000e+003
4.70000000000000e+002 4.27613780370000e+006 2.86041314360000e+006 4.48289360970000e+006 1.60641500000000e+002 -3.09803450000000e+003 1.49335750000000e+003
4.71000000000000e+002 4.27618930000000e+006 2.85730963700000e+006 4.48438415150000e+006 1.55207700000000e+002 -3.10179240000000e+003 1.48772570000000e+003
4.72000000000000e+002 4.27623501000000e+006 2.85420255940000e+006 4.48586906030000e+006 1.49773000000000e+002 -3.10554690000000e+003 1.48209140000000e+003
4.73000000000000e+002 4.27627493220000e+006 2.85109191520000e+006 4.48734833340000e+006 1.44337500000000e+002 -3.10929800000000e+003 1.47645450000000e+003
4.74000000000000e+002 4.27630906540000e+006 2.84797770860000e+006 4.48882196830000e+006 1.38901100000000e+002 -3.11304570000000e+003 1.47081490000000e+003
4.75000000000000e+002 4.27633740850000e+006 2.84485994380000e+006 4.49028996240000e+006 1.33463900000000e+002 -3.11679000000000e+003 1.46517280000000e+003
4.76000000000000e+002 4.27635995990000e+006 2.84173862520000e+006 4.49175231310000e+006 1.28025700000000e+002 -3.12053090000000e+003 1.45952800000000e+003
4.77000000000000e+002 4.27637671860000e+006 2.83861375690000e+006 4.49320901760000e+006 1.22586700000000e+002 -3.12426840000000e+003 1.45388060000000e+003
4.78000000000000e+002 4.27638768310000e+006 2.83548534310000e+006 4.49466007350000e+006 1.17146700000000e+002 -3.12800260000000e+003 1.44823060000000e+003
4.79000000000000e+002 4.27639285210000e+006 2.83235338820000e+006 4.49610547790000e+006 1.11705800000000e+002 -3.13173340000000e+003 1.44257790000000e+003
4.80000000000000e+002 4.27639222440000e+006 2.82921789630000e+006 4.49754522840000e+006 1.06264000000000e+002 -3.13546080000000e+003 1.43692250000000e+003
4.81000000000000e+002 4.27638579860000e+006 2.82607887170000e+006 4.49897932210000e+006 1.00821300000000e+002 -3.13918480000000e+003 1.43126450000000e+003
4.82000000000000e+002 4.27637357330000e+006 2.82293631850000e+006 4.50040775640000e+006 9.53775000000000e+001 -3.14290550000000e+003 1.42560370000000e+003
4.83000000000000e+002 4.27635554730000e+006 2.81979024100000e+006 4.50183052860000e+006 8.99329000000000e+001 -3.14662290000000e+003 1.41994030000000e+003
4.84000000000000e+002 4.27633171900000e+006 2.81664064340000e+006 4.50324763600000e+006 8.44872000000000e+001 -3.15033690000000e+003 1.41427410000000e+003
4.85000000000000e+002 4.27630208730000e+006 2.81348752980000e+006 4.50465907590000e+006 7.90406000000000e+001 -3.15404760000000e+003 1.40860520000000e+003
4.86000000000000e+002 4.27626665060000e+006 2.81033090460000e+006 4.50606484550000e+006 7.35930000000000e+001 -3.15775500000000e+003 1.40293360000000e+003
4.87000000000000e+002 4.27622540760000e+006 2.80717077170000e+006 4.50746494220000e+006 6.81444000000000e+001 -3.16145900000000e+003 1.39725920000000e+003
4.88000000000000e+002 4.27617835700000e+006 2.80400713550000e+006 4.50885936300000e+006 6.26948000000000e+001 -3.16515980000000e+003 1.39158210000000e+003
4.89000000000000e+002 4.27612549720000e+006 2.80084000020000e+006 4.51024810540000e+006 5.72442000000000e+001 -3.16885720000000e+003 1.38590220000000e+003
4.90000000000000e+002 4.27606682690000e+006 2.79766936980000e+006 4.51163116640000e+006 5.17925000000000e+001 -3.17255130000000e+003 1.38021950000000e+003
4.91000000000000e+002 4.27600234470000e+006 2.79449524860000e+006 4.51300854340000e+006 4.63398000000000e+001 -3.17624210000000e+003 1.37453400000000e+003
4.92000000000000e+002 4.27593204910000e+006 2.79131764070000e+006 4.51438023340000e+006 4.08861000000000e+001 -3.17992960000000e+003 1.36884570000000e+003
4.93000000000000e+002 4.27585593870000e+006 2.78813655020000e+006 4.51574623380000e+006 3.54313000000000e+001 -3.18361390000000e+003 1.36315460000000e+003
4.94000000000000e+002 4.27577401210000e+006 2.78495198140000e+006 4.51710654160000e+006 2.99754000000000e+001 -3.18729480000000e+003 1.35746060000000e+003
4.95000000000000e+002 4.27568626770000e+006 2.78176393840000e+006 4.51846115410000e+006 2.45185000000000e+001 -3.19097250000000e+003 1.35176380000000e+003
4.96000000000000e+002 4.27559270410000e+006 2.77857242530000e+006 4.51981006840000e+006 1.90604000000000e+001 -3.19464690000000e+003 1.34606420000000e+003
4.97000000000000e+002 4.27549331990000e+006 2.77537744620000e+006 4.52115328150000e+006 1.36013000000000e+001 -3.19831810000000e+003 1.34036170000000e+003
4.98000000000000e+002 4.27538811350000e+006 2.77217900530000e+006 4.52249079080000e+006 8.14110000000000e+000 -3.20198590000000e+003 1.33465630000000e+003
4.99000000000000e+002 4.27527708340000e+006 2.76897710670000e+006 4.52382259320000e+006 2.67970000000000e+000 -3.20565060000000e+003 1.32894800000000e+003
5.00000000000000e+002 4.27516022820000e+006 2.76577175460000e+006 4.52514868590000e+006 -2.78270000000000e+000 -3.20931200000000e+003 1.32323690000000e+003
5.01000000000000e+002 4.27503754630000e+006 2.76256295290000e+006 4.52646906600000e+006 -8.24630000000000e+000 -3.21297010000000e+003 1.31752280000000e+003
5.02000000000000e+002 4.27490903620000e+006 2.75935070600000e+006 4.52778373050000e+006 -1.37111000000000e+001 -3.21662500000000e+003 1.31180580000000e+003
5.03000000000000e+002 4.27477469640000e+006 2.75613501780000e+006 4.52909267660000e+006 -1.91770000000000e+001 -3.22027670000000e+003 1.30608580000000e+003
5.04000000000000e+002 4.27463452520000e+006 2.75291589250000e+006 4.53039590120000e+006 -2.46441000000000e+001 -3.22392510000000e+003 1.30036300000000e+003
5.05000000000000e+002 4.27448852130000e+006 2.74969333420000e+006 4.53169340150000e+006 -3.01123000000000e+001 -3.22757030000000e+003 1.29463710000000e+003
5.06000000000000e+002 4.27433668290000e+006 2.74646734690000e+006 4.53298517450000e+006 -3.55817000000000e+001 -3.23121230000000e+003 1.28890830000000e+003
5.07000000000000e+002 4.27417900860000e+006 2.74323793480000e+006 4.53427121710000e+006 -4.10524000000000e+001 -3.23485110000000e+003 1.28317650000000e+003
5.08000000000000e+002 4.27401549680000e+006 2.74000510190000e+006 4.53555152640000e+006 -4.65242000000000e+001 -3.23848670000000e+003 1.27744170000000e+003
5.09000000000000e+002 4.27384614580000e+006 2.73676885230000e+006 4.53682609950000e+006 -5.19972000000000e+001 -3.24211910000000e+003 1.27170390000000e+003
5.10000000000000e+002 4.27367095400000e+006 2.73352919010000e+006 4.53809493320000e+006 -5.74715000000000e+001 -3.24574830000000e+003 1.26596310000000e+003
5.11000000000000e+002 4.27348992000000e+006 2.73028611940000e+006 4.53935802460000e+006 -6.29470000000000e+001 -3.24937430000000e+003 1.26021920000000e+003
END Ephemeris
